XRISM                   
1 57800U 23137A   24201.60516341  .00006070  00000+0  45077-3 0  9999
2 57800  31.0015 166.1972 0009740 172.4684 187.6099 15.01568545 47568
